{"fetched_at":"2026-07-10T07:58:44.755Z","source":"https://celestrak.org/NORAD/elements/gp.php?GROUP=spire&FORMAT=JSON","constellation":"spire","records":[{"OBJECT_NAME":"LEMUR-2-LEIA-PHILIP","OBJECT_ID":"2025-052AN","EPOCH":"2026-07-08T15:42:43.071552","CLASSIFICATION_TYPE":"U","MEAN_MOTION":14.97380709,"ECCENTRICITY":0.00049616,"INCLINATION":97.6816,"RA_OF_ASC_NODE":81.242,"ARG_OF_PERICENTER":135.3701,"MEAN_ANOMALY":224.7921,"EPHEMERIS_TYPE":0,"NORAD_CAT_ID":63246,"ELEMENT_SET_NO":999,"REV_AT_EPOCH":7188,"BSTAR":0.00015163599,"MEAN_MOTION_DOT":0.00001704,"MEAN_MOTION_DDOT":0},{"OBJECT_NAME":"LEMUR-2-LIA-MARTIN","OBJECT_ID":"2025-052AQ","EPOCH":"2026-07-08T15:38:47.928768","CLASSIFICATION_TYPE":"U","MEAN_MOTION":14.97991386,"ECCENTRICITY":0.00053407,"INCLINATION":97.6868,"RA_OF_ASC_NODE":81.7463,"ARG_OF_PERICENTER":106.1828,"MEAN_ANOMALY":253.9982,"EPHEMERIS_TYPE":0,"NORAD_CAT_ID":63248,"ELEMENT_SET_NO":999,"REV_AT_EPOCH":7189,"BSTAR":0.00032627323,"MEAN_MOTION_DOT":0.00003795,"MEAN_MOTION_DDOT":0},{"OBJECT_NAME":"LEMUR-2-DELOITTE-1","OBJECT_ID":"2025-052BB","EPOCH":"2026-07-08T16:45:18.552960","CLASSIFICATION_TYPE":"U","MEAN_MOTION":14.97751965,"ECCENTRICITY":0.00023088,"INCLINATION":97.6884,"RA_OF_ASC_NODE":82.1233,"ARG_OF_PERICENTER":66.8273,"MEAN_ANOMALY":293.3192,"EPHEMERIS_TYPE":0,"NORAD_CAT_ID":63259,"ELEMENT_SET_NO":999,"REV_AT_EPOCH":7191,"BSTAR":0.00020556086,"MEAN_MOTION_DOT":0.00002354,"MEAN_MOTION_DDOT":0},{"OBJECT_NAME":"LEMUR-2-EMERSONROSE","OBJECT_ID":"2025-052BD","EPOCH":"2026-07-09T04:27:52.255008","CLASSIFICATION_TYPE":"U","MEAN_MOTION":14.99254968,"ECCENTRICITY":0.00027685,"INCLINATION":97.6878,"RA_OF_ASC_NODE":83.2031,"ARG_OF_PERICENTER":70.0597,"MEAN_ANOMALY":290.0924,"EPHEMERIS_TYPE":0,"NORAD_CAT_ID":63261,"ELEMENT_SET_NO":999,"REV_AT_EPOCH":7203,"BSTAR":0.00028708514,"MEAN_MOTION_DOT":0.00003443,"MEAN_MOTION_DDOT":0},{"OBJECT_NAME":"LEMUR-2-MARACHE-FRAN","OBJECT_ID":"2025-052BE","EPOCH":"2026-07-08T22:42:20.727936","CLASSIFICATION_TYPE":"U","MEAN_MOTION":15.00289249,"ECCENTRICITY":0.00045737,"INCLINATION":97.6855,"RA_OF_ASC_NODE":83.3255,"ARG_OF_PERICENTER":280.3591,"MEAN_ANOMALY":79.7117,"EPHEMERIS_TYPE":0,"NORAD_CAT_ID":63262,"ELEMENT_SET_NO":999,"REV_AT_EPOCH":7202,"BSTAR":0.00018602442,"MEAN_MOTION_DOT":0.00002271,"MEAN_MOTION_DDOT":0},{"OBJECT_NAME":"LEMUR-2-THEFALCONER","OBJECT_ID":"2025-052BG","EPOCH":"2026-07-09T03:05:08.888640","CLASSIFICATION_TYPE":"U","MEAN_MOTION":14.97544949,"ECCENTRICITY":0.00007348,"INCLINATION":97.685,"RA_OF_ASC_NODE":82.1435,"ARG_OF_PERICENTER":22.7964,"MEAN_ANOMALY":337.3291,"EPHEMERIS_TYPE":0,"NORAD_CAT_ID":63264,"ELEMENT_SET_NO":999,"REV_AT_EPOCH":7197,"BSTAR":0.00022140592,"MEAN_MOTION_DOT":0.00002526,"MEAN_MOTION_DDOT":0},{"OBJECT_NAME":"LEMUR-2-UNTITLED-SC","OBJECT_ID":"2025-061A","EPOCH":"2026-07-09T04:04:54.834240","CLASSIFICATION_TYPE":"U","MEAN_MOTION":15.13621197,"ECCENTRICITY":0.00185671,"INCLINATION":97.5647,"RA_OF_ASC_NODE":165.3743,"ARG_OF_PERICENTER":183.5741,"MEAN_ANOMALY":176.5361,"EPHEMERIS_TYPE":0,"NORAD_CAT_ID":63351,"ELEMENT_SET_NO":999,"REV_AT_EPOCH":7091,"BSTAR":0.00012305117,"MEAN_MOTION_DOT":0.00002152,"MEAN_MOTION_DDOT":0},{"OBJECT_NAME":"LEMUR-2-ESPERANZA","OBJECT_ID":"2025-061B","EPOCH":"2026-07-09T17:46:43.078368","CLASSIFICATION_TYPE":"U","MEAN_MOTION":15.13732114,"ECCENTRICITY":0.0018314,"INCLINATION":97.5652,"RA_OF_ASC_NODE":166.04,"ARG_OF_PERICENTER":180.7928,"MEAN_ANOMALY":179.3277,"EPHEMERIS_TYPE":0,"NORAD_CAT_ID":63352,"ELEMENT_SET_NO":999,"REV_AT_EPOCH":7100,"BSTAR":0.00015555,"MEAN_MOTION_DOT":0.00002746,"MEAN_MOTION_DDOT":0},{"OBJECT_NAME":"LEMUR-2-KREMPEL-BRO2","OBJECT_ID":"2025-061C","EPOCH":"2026-07-09T11:55:35.379264","CLASSIFICATION_TYPE":"U","MEAN_MOTION":15.14154225,"ECCENTRICITY":0.0019391,"INCLINATION":97.5701,"RA_OF_ASC_NODE":166.3597,"ARG_OF_PERICENTER":174.4032,"MEAN_ANOMALY":185.742,"EPHEMERIS_TYPE":0,"NORAD_CAT_ID":63353,"ELEMENT_SET_NO":999,"REV_AT_EPOCH":7098,"BSTAR":0.00013425,"MEAN_MOTION_DOT":0.0000239,"MEAN_MOTION_DDOT":0},{"OBJECT_NAME":"LEMUR-2-THERMORAPTOR","OBJECT_ID":"2025-061D","EPOCH":"2026-07-09T17:48:40.531392","CLASSIFICATION_TYPE":"U","MEAN_MOTION":15.14238591,"ECCENTRICITY":0.0019228,"INCLINATION":97.5705,"RA_OF_ASC_NODE":166.6835,"ARG_OF_PERICENTER":172.4021,"MEAN_ANOMALY":187.7505,"EPHEMERIS_TYPE":0,"NORAD_CAT_ID":63354,"ELEMENT_SET_NO":999,"REV_AT_EPOCH":7102,"BSTAR":0.0001451,"MEAN_MOTION_DOT":0.00002595,"MEAN_MOTION_DDOT":0},{"OBJECT_NAME":"LEMUR-2-NEUROSPICY","OBJECT_ID":"2025-061E","EPOCH":"2026-07-09T15:30:14.101056","CLASSIFICATION_TYPE":"U","MEAN_MOTION":15.14356648,"ECCENTRICITY":0.0016892,"INCLINATION":97.5633,"RA_OF_ASC_NODE":166.1966,"ARG_OF_PERICENTER":175.58,"MEAN_ANOMALY":184.5584,"EPHEMERIS_TYPE":0,"NORAD_CAT_ID":63355,"ELEMENT_SET_NO":999,"REV_AT_EPOCH":7101,"BSTAR":0.00012105,"MEAN_MOTION_DOT":0.00002159,"MEAN_MOTION_DDOT":0},{"OBJECT_NAME":"LEMUR-2-TILLINFINITY","OBJECT_ID":"2025-061F","EPOCH":"2026-07-08T21:07:11.345088","CLASSIFICATION_TYPE":"U","MEAN_MOTION":15.14936063,"ECCENTRICITY":0.00184285,"INCLINATION":97.5618,"RA_OF_ASC_NODE":165.7409,"ARG_OF_PERICENTER":166.9103,"MEAN_ANOMALY":193.2611,"EPHEMERIS_TYPE":0,"NORAD_CAT_ID":63356,"ELEMENT_SET_NO":999,"REV_AT_EPOCH":7092,"BSTAR":0.00014913425,"MEAN_MOTION_DOT":0.00002722,"MEAN_MOTION_DDOT":0},{"OBJECT_NAME":"LEMUR-2-KREMPEL-BRO1","OBJECT_ID":"2025-061G","EPOCH":"2026-07-09T15:34:29.494272","CLASSIFICATION_TYPE":"U","MEAN_MOTION":15.14747968,"ECCENTRICITY":0.0019087,"INCLINATION":97.562,"RA_OF_ASC_NODE":166.4155,"ARG_OF_PERICENTER":165.6519,"MEAN_ANOMALY":194.5259,"EPHEMERIS_TYPE":0,"NORAD_CAT_ID":63357,"ELEMENT_SET_NO":999,"REV_AT_EPOCH":7103,"BSTAR":0.00012107,"MEAN_MOTION_DOT":0.00002186,"MEAN_MOTION_DDOT":0},{"OBJECT_NAME":"LEMUR-2-LANGER2SPACE","OBJECT_ID":"2025-061H","EPOCH":"2026-07-09T00:27:41.667264","CLASSIFICATION_TYPE":"U","MEAN_MOTION":15.14437851,"ECCENTRICITY":0.00167527,"INCLINATION":97.5624,"RA_OF_ASC_NODE":165.5945,"ARG_OF_PERICENTER":176.0729,"MEAN_ANOMALY":184.0637,"EPHEMERIS_TYPE":0,"NORAD_CAT_ID":63358,"ELEMENT_SET_NO":999,"REV_AT_EPOCH":7092,"BSTAR":0.00014063256,"MEAN_MOTION_DOT":0.00002525,"MEAN_MOTION_DDOT":0},{"OBJECT_NAME":"LEMUR-2-BALTO","OBJECT_ID":"2025-052BH","EPOCH":"2026-07-09T03:08:12.492960","CLASSIFICATION_TYPE":"U","MEAN_MOTION":15.00327933,"ECCENTRICITY":0.00054889,"INCLINATION":97.6932,"RA_OF_ASC_NODE":83.4907,"ARG_OF_PERICENTER":352.0024,"MEAN_ANOMALY":8.1112,"EPHEMERIS_TYPE":0,"NORAD_CAT_ID":63395,"ELEMENT_SET_NO":999,"REV_AT_EPOCH":7205,"BSTAR":0.00029544681,"MEAN_MOTION_DOT":0.00003647,"MEAN_MOTION_DDOT":0},{"OBJECT_NAME":"LEMUR-2-KRISH","OBJECT_ID":"2025-135AK","EPOCH":"2026-07-09T06:37:35.030496","CLASSIFICATION_TYPE":"U","MEAN_MOTION":14.96418307,"ECCENTRICITY":0.00017675,"INCLINATION":97.7763,"RA_OF_ASC_NODE":305.0039,"ARG_OF_PERICENTER":97.8826,"MEAN_ANOMALY":262.2596,"EPHEMERIS_TYPE":0,"NORAD_CAT_ID":64561,"ELEMENT_SET_NO":999,"REV_AT_EPOCH":5722,"BSTAR":0.00035871011,"MEAN_MOTION_DOT":0.00004009,"MEAN_MOTION_DDOT":0}]}
